SWARM A                 
1 39452U 13067B   26157.83092870  .00012296  00000+0  21309-3 0  9995
2 39452  87.3327  60.0878 0003017  91.5432 268.6174 15.50745085704644
SWARM C                 
1 39453U 13067C   26157.83081777  .00012324  00000+0  21357-3 0  9995
2 39453  87.3326  58.6690 0002995  91.6935 268.4669 15.50747351704603
BRITE-CA1 (TORONTO)     
1 40020U 14033L   26157.64225058  .00000796  00000+0  12740-3 0  9998
2 40020  97.9728 286.7655 0077539 311.3532  48.1023 14.72662532640666
OCO 2                   
1 40059U 14035A   26157.85501812  .00000451  00000+0  11022-3 0  9990
2 40059  98.2015  99.3057 0001477  87.6642 272.4725 14.57102741634543
BRITE-PL2 (HEWELIUSZ)   
1 40119U 14049B   26157.19256091  .00003210  00000+0  30175-3 0  9991
2 40119  97.9087 269.1089 0015051 141.6770 218.5523 14.94554868639806
MMS 1                   
1 40482U 15011A   26157.91670139 -.00000213  00000+0  00000+0 0  9998
2 40482  72.1960 348.9042 8355750 167.1204 331.5277  0.28170427  1380
MMS 2                   
1 40483U 15011B   26157.91670139 -.00000213  00000+0  00000+0 0  9999
2 40483  72.1962 348.9064 8356527 167.1260 331.5162  0.28170363  1384
MMS 3                   
1 40484U 15011C   26157.91670139 -.00000213  00000+0  00000+0 0  9990
2 40484  72.1991 348.9109 8355718 167.1205 331.5127  0.28170451  1386
MMS 4                   
1 40485U 15011D   26157.91670139 -.00000213  00000+0  00000+0 0  9991
2 40485  72.1958 348.9068 8355659 167.1321 331.5095  0.28162020  1384
ASTROSAT                
1 40930U 15052A   26157.79856345  .00001709  00000+0  12619-3 0  9995
2 40930   5.9948 230.1407 0008537 248.8722 111.0493 14.82490249578288
DAMPE                   
1 41173U 15078A   26157.84016990  .00001097  00000+0  39424-4 0  9997
2 41173  97.4562 163.2565 0013625 108.9658 251.3061 15.30757482582963
PISAT                   
1 41784U 16059B   26157.79037896  .00001044  00000+0  18530-3 0  9993
2 41784  97.8178 158.6901 0027691 237.2056 122.6482 14.68965750518219
HXMT (HUIYAN)           
1 42758U 17034A   26157.67530240  .00005783  00000+0  28432-3 0  9993
2 42758  43.0131 241.5723 0030166  77.6488 282.7735 15.18400119496069
FLYING LAPTOP           
1 42831U 17042G   26157.85335031  .00004642  00000+0  36601-3 0  9995
2 42831  97.4652 313.7874 0019013 155.4398 204.7736 15.01078856484900
ZHANGHENG 1-01 (CSES-1) 
1 43194U 18015C   26157.87436054  .00008861  00000+0  40493-3 0  9999
2 43194  97.6868 323.3289 0017248 305.1091  54.8526 15.20680124463077
SALSAT                  
1 46495U 20068K   26157.74488442  .00010129  00000+0  35498-3 0  9990
2 46495  97.8851 160.1753 0009050 349.8452  10.2602 15.29647917313762
IXPE                    
1 49954U 21121A   26157.83335647  .00012404  00000+0  68188-3 0  9992
2 49954   0.2303  35.4881 0006956 283.9014 103.4882 15.10154180  5819
SMILE                   
1 69123U 26109A   26144.65318427 -.00001976  00000+0 -42379-3 0  9994
2 69123  70.0007 229.2745 0009123 259.5159 100.4951 14.57062785   802
